COSMOS 2425 (716)       
1 29670U 06062A   17295.29654119 -.00000018  00000-0  10000-3 0  9993
2 29670  65.3986 300.5741 0020816 337.5254 111.0359  2.13104951 84243
COSMOS 2426 (717)       
1 29671U 06062B   17295.30696485 -.00000018  00000-0  10000-3 0  9998
2 29671  65.4167 300.6671 0018403 174.3297 139.6350  2.13102996 84246
COSMOS 2433 (720)       
1 32275U 07052A   17295.39178584 -.00000032  00000-0  10000-3 0  9992
2 32275  65.5756  61.3506 0001924 212.8616 140.6707  2.13104718 77756
COSMOS 2432 (719)       
1 32276U 07052B   17295.43966272 -.00000031  00000-0  10000-3 0  9996
2 32276  65.5875  61.4227 0009429 340.5578   2.2940  2.13103936 77757
COSMOS 2434 (721)       
1 32393U 07065A   17295.28685383 -.00000018  00000-0  00000-0 0  9995
2 32393  65.0151 299.6630 0002995 160.0977   1.9192  2.13102928 76463
COSMOS 2436 (723)       
1 32395U 07065C   17295.57444013 -.00000017  00000-0  10000-3 0  9995
2 32395  65.0245 299.7015 0013864 349.2218  82.7493  2.13104321 76407
COSMOS 2456 (730)       
1 36111U 09070A   17295.45750505  .00000028  00000-0  00000+0 0  9992
2 36111  64.1789 179.2272 0003922 327.2211 137.2579  2.13102994 61139
COSMOS 2457 (733)       
1 36112U 09070B   17295.32726370  .00000029  00000-0  00000-0 0  9994
2 36112  64.1618 179.1470 0006262 161.6044 330.9483  2.13101663 61132
COSMOS 2458 (734)       
1 36113U 09070C   17295.28405858  .00000029  00000-0  10000-3 0  9999
2 36113  64.1657 179.1575 0001796  24.5852 122.9044  2.13101891 61138
COSMOS 2459 (731)       
1 36400U 10007A   17295.21594264 -.00000035  00000-0  10000-3 0  9991
2 36400  65.4836  60.4471 0025682 355.5194  84.1132  2.13102160 59485
COSMOS 2461 (735)       
1 36401U 10007B   17295.35331786 -.00000034  00000-0  10000-3 0  9994
2 36401  65.4765  60.4194 0007797  81.4598  14.1771  2.13102124 59481
COSMOS 2460 (732)       
1 36402U 10007C   17295.13312292 -.00000035  00000-0  10000-3 0  9993
2 36402  65.4672  60.3978 0002058 122.4752 205.2742  2.13101722 59474
COSMOS 2464 (736)       
1 37139U 10041C   17295.32890709 -.00000019  00000-0  00000-0 0  9992
2 37139  64.6203 299.5854 0021542   6.0466  55.9710  2.13102650 55551
COSMOS 2471 (701K)      
1 37372U 11009A   17295.44374891 -.00000033  00000-0  00000-0 0  9994
2 37372  65.4646  60.3334 0007870 222.3420 122.5597  2.13107678 51755
COSMOS 2474 (742)       
1 37829U 11055A   17295.23932602  .00000029  00000-0  00000-0 0  9993
2 37829  64.5031 179.8518 0007953 248.2027 268.1095  2.13101930 47123
COSMOS 2476 (744)       
1 37867U 11064A   17295.33656550  .00000029  00000-0  00000-0 0  9991
2 37867  64.4833 179.9163 0017303 242.4518  34.4304  2.13101982 46473
COSMOS 2477 (745)       
1 37868U 11064B   17295.32225302  .00000029  00000-0  00000+0 0  9997
2 37868  64.4922 179.9623 0015235 243.7203 201.2464  2.13101892 46438
COSMOS 2475 (743)       
1 37869U 11064C   17295.44436850  .00000028  00000-0  00000-0 0  9993
2 37869  64.4991 179.9509 0019851 270.5518 224.6251  2.13102222 46445
COSMOS 2485 (747)       
1 39155U 13019A   17295.20158355  .00000030  00000-0  00000+0 0  9992
2 39155  64.6519 179.9788 0017155 236.2008 342.1120  2.13101897 34940
COSMOS 2492 (754)       
1 39620U 14012A   17295.33190046 -.00000034  00000-0  10000-3 0  9990
2 39620  65.3574  60.3101 0012778 333.9966  18.6905  2.13103393 27897
COSMOS 2500 (755)       
1 40001U 14032A   17294.99816920 -.00000037  00000-0  00000-0 0  9993
2 40001  65.2979  60.3082 0006833 191.5728 127.8722  2.13102715 26107
COSMOS 2501 (702K)      
1 40315U 14075A   17295.42050285 -.00000020  00000-0  00000+0 0  9992
2 40315  64.3453 300.8805 0017003 212.5390 235.3515  2.13098569 22525
COSMOS 2514 (751)       
1 41330U 16008A   17295.29379757 -.00000035  00000-0  00000-0 0  9998
2 41330  65.0988  60.4108 0009593 203.8269 162.7253  2.13103340 13281
COSMOS 2516 (753)       
1 41554U 16032A   17295.44640668 -.00000019  00000-0  00000+0 0  9993
2 41554  64.5655 300.6779 0014636 225.0246 150.5687  2.13101663 10898
COSMOS 2522 (752)       
1 42939U 17055A   17295.25343672 -.00000020  00000-0  00000-0 0  9994
2 42939  64.7955 300.5815 0010311 249.1592 204.7505  2.13101826   642
